[
    {
        "Altitude(m)": 607897.6070899206,
        "Argument of Periapsis(deg)": 0.0,
        "Eccentricity": 0.0,
        "Inclination(deg)": 60.0,
        "Latitude(deg)": -14.292891978086713,
        "Longitude(deg)": 71.6187688507301,
        "Mean Anomaly(deg)": -16.363599999999984,
        "RAAN(deg)": 180.0,
        "Satellite Name": "Test1 813",
        "Satellite Number": 813,
        "Semi-Major Axis(m)": 6980739.136638005,
        "Time(s)": 0
    },
    {
        "Altitude(m)": 607750.8085885709,
        "Argument of Periapsis(deg)": 0.00010418945913296404,
        "Eccentricity": 0.0,
        "Inclination(deg)": 60.0,
        "Latitude(deg)": -13.758733103207813,
        "Longitude(deg)": 71.90583719146929,
        "Mean Anomaly(deg)": -15.743493854538132,
        "RAAN(deg)": 179.99957995086024,
        "Satellite Name": "Test1 813",
        "Satellite Number": 813,
        "Semi-Major Axis(m)": 6980739.136638005,
        "Time(s)": 10
    }
]